{
    "links": {
        "self": "http://www.neowsapp.com/rest/v1/neo/3719858?api_key=iIulBulltgU6a56xZRHN4H3l9WmuAYTsLGpBGhQ2"
    },
    "id": "3719858",
    "neo_reference_id": "3719858",
    "name": "(2015 KL57)",
    "designation": "2015 KL57",
    "nasa_jpl_url": "http://ssd.jpl.nasa.gov/sbdb.cgi?sstr=3719858",
    "absolute_magnitude_h": 21.5,
    "estimated_diameter": {
        "kilometers": {
            "estimated_diameter_min": 0.1332155667,
            "estimated_diameter_max": 0.2978790628
        },
        "meters": {
            "estimated_diameter_min": 133.2155666981,
            "estimated_diameter_max": 297.8790627982
        },
        "miles": {
            "estimated_diameter_min": 0.0827762899,
            "estimated_diameter_max": 0.1850934111
        },
        "feet": {
            "estimated_diameter_min": 437.0589598459,
            "estimated_diameter_max": 977.2935443908
        }
    },
    "is_potentially_hazardous_asteroid": false,
    "close_approach_data": [
        {
            "close_approach_date": "2015-04-18",
            "close_approach_date_full": "2015-Apr-18 12:40",
            "epoch_date_close_approach": 1429360800000,
            "relative_velocity": {
                "kilometers_per_second": "18.7456388587",
                "kilometers_per_hour": "67484.2998914813",
                "miles_per_hour": "41932.1195631262"
            },
            "miss_distance": {
                "astronomical": "0.2665008769",
                "lunar": "103.6688411141",
                "kilometers": "39867963.537372203",
                "miles": "24772803.8119462814"
            },
            "orbiting_body": "Earth"
        }
    ],
    "orbital_data": {
        "orbit_id": "4",
        "orbit_determination_date": "2019-03-22 06:53:44",
        "first_observation_date": "2015-05-21",
        "last_observation_date": "2015-06-04",
        "data_arc_in_days": 14,
        "observations_used": 22,
        "orbit_uncertainty": "7",
        "minimum_orbit_intersection": ".187506",
        "jupiter_tisserand_invariant": "3.276",
        "epoch_osculation": "2459000.5",
        "eccentricity": ".5956526207472299",
        "semi_major_axis": "2.312790760866942",
        "inclination": "16.62018640790209",
        "ascending_node_longitude": "49.64263346223549",
        "orbital_period": "1284.703604098945",
        "perihelion_distance": ".9351708829165679",
        "perihelion_argument": "94.74807432631783",
        "aphelion_distance": "3.690410638817315",
        "perihelion_time": "2458374.901668128662",
        "mean_anomaly": "175.3053379434096",
        "mean_motion": ".2802202771529499",
        "equinox": "J2000",
        "orbit_class": {
            "orbit_class_type": "APO",
            "orbit_class_description": "Near-Earth asteroid orbits which cross the Earth’s orbit similar to that of 1862 Apollo",
            "orbit_class_range": "a (semi-major axis) > 1.0 AU; q (perihelion) < 1.017 AU"
        }
    },
    "is_sentry_object": false
}